OBJECT_NAME,OBJECT_ID,EPOCH,MEAN_MOTION,ECCENTRICITY,INCLINATION,RA_OF_ASC_NODE,ARG_OF_PERICENTER,MEAN_ANOMALY,EPHEMERIS_TYPE,CLASSIFICATION_TYPE,NORAD_CAT_ID,ELEMENT_SET_NO,REV_AT_EPOCH,BSTAR,MEAN_MOTION_DOT,MEAN_MOTION_DDOT
STARLINK-32861,2025-022S,2026-06-13T19:48:19.071936,15.34408538,.000145,53.1588,41.3275,102.0871,258.0294,0,U,62870,999,7664,.92501E-3,.31015E-3,0
STARLINK-32814,2025-022T,2026-06-13T21:10:39.485280,15.34385779,.0001176,53.1600,42.3907,99.3375,260.7760,0,U,62871,999,7663,.75955E-3,.25361E-3,0
STARLINK-32849,2025-022U,2026-06-13T19:39:53.553312,15.34388152,.0001177,53.1597,42.7095,91.7774,268.3364,0,U,62872,999,7662,.56364E-3,.18708E-3,0
STARLINK-32833,2025-022V,2026-06-13T20:01:06.515616,15.34395833,.0001227,53.1607,42.7975,103.0612,257.0528,0,U,62873,999,7662,.98498E-3,.33045E-3,0
STARLINK-32793,2025-022W,2026-06-13T20:00:01.999008,15.33557223,.0001026,53.1609,43.1168,82.6318,114.0857,0,U,62874,999,585,-.31344E-3,-.10669E-3,0
STARLINK-32834,2025-022X,2026-06-13T20:00:01.999008,15.34389809,.0001136,53.1592,42.6619,108.2877,317.4993,0,U,62875,999,570,-.45725E-3,-.15788E-3,0
STARLINK-11371 [DTC],2025-024A,2026-06-12T17:58:02.080416,15.70924147,.0002757,42.9994,328.7663,263.1503,96.9051,0,U,62879,999,7841,.13476543E-2,.17684E-2,0
STARLINK-11352 [DTC],2025-024B,2026-06-13T03:45:26.407296,15.70941783,.00019784,42.9988,325.7853,296.2894,63.7770,0,U,62880,999,7848,.2310501E-2,.308612E-2,0
STARLINK-11382 [DTC],2025-024C,2026-06-12T17:35:05.753472,15.70933687,.00021474,42.9989,328.6382,260.2135,99.8490,0,U,62881,999,7841,.12791353E-2,.167699E-2,0
STARLINK-11432 [DTC],2025-024D,2026-06-12T17:50:23.264448,15.70922561,.00027221,42.9987,328.7228,264.2435,95.8123,0,U,62882,999,7841,.12601212E-2,.165078E-2,0
STARLINK-11419 [DTC],2025-024E,2026-06-13T04:08:22.530336,15.70917610,.0001904,42.9982,325.9129,292.6081,67.4585,0,U,62883,999,7848,.17451706E-2,.230555E-2,0
STARLINK-11437 [DTC],2025-024F,2026-06-12T17:42:44.534016,15.70939720,.00023667,43.0084,328.6792,256.2881,103.7723,0,U,62884,999,7841,.14240171E-2,.187235E-2,0
STARLINK-11442 [DTC],2025-024G,2026-06-13T17:14:11.545152,15.70902397,.0002262,42.9993,322.2473,270.5634,89.4975,0,U,62885,999,7857,.14829E-2,.194869E-2,0
STARLINK-11365 [DTC],2025-024H,2026-06-13T17:21:50.311008,15.70889899,.0001763,42.9983,322.2892,276.1138,83.9529,0,U,62886,999,7857,.12195E-2,.159404E-2,0
STARLINK-11436 [DTC],2025-024J,2026-06-13T04:00:44.251776,15.70939059,.00012677,42.9989,325.8670,314.3132,45.7632,0,U,62887,999,7848,.1444491E-2,.189985E-2,0
STARLINK-11438 [DTC],2025-024K,2026-06-13T17:23:08.923776,15.70937218,.0002261,42.9993,322.2958,260.1866,99.8747,0,U,62888,999,7857,.1928E-2,.255755E-2,0
STARLINK-11391 [DTC],2025-024L,2026-06-13T17:37:07.415040,15.70901322,.0002312,42.9995,322.3655,265.4993,94.5611,0,U,62889,999,7857,.13257E-2,.173712E-2,0
STARLINK-11431 [DTC],2025-024M,2026-06-13T17:06:43.936992,15.70916705,.000145,42.9996,323.0985,260.2243,99.8461,0,U,62890,999,7856,.1568E-2,.206491E-2,0
STARLINK-11435 [DTC],2025-024N,2026-06-12T21:08:47.587776,15.70887139,.00023628,43.0001,328.0402,265.7133,94.3465,0,U,62891,999,7843,.1408753E-2,.184761E-2,0
STARLINK-32878,2025-024P,2026-06-13T16:07:19.926624,15.27616646,.0004378,43.0039,143.4393,272.8311,87.2040,0,U,62892,999,7694,.70173E-3,.19123E-3,0
STARLINK-32892,2025-024Q,2026-06-13T05:13:48.423648,15.27596897,.00033838,43.0036,146.0496,275.4642,84.5824,0,U,62893,999,7687,.64445408E-3,.17525E-3,0
STARLINK-32909,2025-024R,2026-06-13T05:23:03.371712,15.27586634,.00020675,42.9999,146.0987,270.9317,89.1298,0,U,62894,999,7687,.63717469E-3,.17317E-3,0
STARLINK-32901,2025-024S,2026-06-13T15:41:25.048896,15.27596610,.0004824,43.0033,143.3007,264.4700,95.5601,0,U,62895,999,7694,.7753E-3,.21149E-3,0
STARLINK-32890,2025-024T,2026-06-13T14:58:53.020128,15.27590464,.0002112,42.9970,143.0767,277.2000,82.8611,0,U,62896,999,7694,.75275E-3,.20517E-3,0
STARLINK-32893,2025-024U,2026-06-13T15:15:33.748992,15.27550309,.0001485,42.9998,143.1617,265.9580,94.1102,0,U,62897,999,7694,.85909E-3,.23432E-3,0
STARLINK-32902,2025-024V,2026-06-13T15:09:58.562784,15.27600226,.0002161,42.9972,143.1272,276.4247,83.6359,0,U,62898,999,7694,.75919E-3,.20701E-3,0
STARLINK-32661,2025-024W,2026-06-13T20:00:01.999008,15.27550478,.0001251,43.0013,142.3382,267.2796,340.2664,0,U,62899,999,585,.13528E-2,.37118E-3,0
