STARLINK-32861          
1 62870U 25022S   26164.82522074  .00031015  00000+0  92501-3 0  9992
2 62870  53.1588  41.3275 0001450 102.0871 258.0294 15.34408538 76640
STARLINK-32814          
1 62871U 25022T   26164.88240145  .00025361  00000+0  75955-3 0  9996
2 62871  53.1600  42.3907 0001176  99.3375 260.7760 15.34385779 76639
STARLINK-32849          
1 62872U 25022U   26164.81936983  .00018708  00000+0  56364-3 0  9992
2 62872  53.1597  42.7095 0001177  91.7774 268.3364 15.34388152 76628
STARLINK-32833          
1 62873U 25022V   26164.83410319  .00033045  00000+0  98498-3 0  9990
2 62873  53.1607  42.7975 0001227 103.0612 257.0528 15.34395833 76623
STARLINK-32793          
1 62874U 25022W   26164.83335647 -.00010669  00000+0 -31344-3 0  9997
2 62874  53.1609  43.1168 0001026  82.6318 114.0857 15.33557223  5853
STARLINK-32834          
1 62875U 25022X   26164.83335647 -.00015788  00000+0 -45725-3 0  9993
2 62875  53.1592  42.6619 0001136 108.2877 317.4993 15.34389809  5705
STARLINK-11371 [DTC]    
1 62879U 25024A   26163.74863519  .00176840  00000+0  13477-2 0  9995
2 62879  42.9994 328.7663 0002757 263.1503  96.9051 15.70924147 78417
STARLINK-11352 [DTC]    
1 62880U 25024B   26164.15655564  .00308612  00000+0  23105-2 0  9995
2 62880  42.9988 325.7853 0001978 296.2894  63.7770 15.70941783 78486
STARLINK-11382 [DTC]    
1 62881U 25024C   26163.73270548  .00167699  00000+0  12791-2 0  9991
2 62881  42.9989 328.6382 0002147 260.2135  99.8490 15.70933687 78411
STARLINK-11432 [DTC]    
1 62882U 25024D   26163.74332482  .00165078  00000+0  12601-2 0  9998
2 62882  42.9987 328.7228 0002722 264.2435  95.8123 15.70922561 78414
STARLINK-11419 [DTC]    
1 62883U 25024E   26164.17248299  .00230555  00000+0  17452-2 0  9991
2 62883  42.9982 325.9129 0001904 292.6081  67.4585 15.70917610 78485
STARLINK-11437 [DTC]    
1 62884U 25024F   26163.73801544  .00187235  00000+0  14240-2 0  9999
2 62884  43.0084 328.6792 0002366 256.2881 103.7723 15.70939720 78411
STARLINK-11442 [DTC]    
1 62885U 25024G   26164.71818918  .00194869  00000+0  14829-2 0  9996
2 62885  42.9993 322.2473 0002262 270.5634  89.4975 15.70902397 78571
STARLINK-11365 [DTC]    
1 62886U 25024H   26164.72349897  .00159404  00000+0  12195-2 0  9993
2 62886  42.9983 322.2892 0001763 276.1138  83.9529 15.70889899 78577
STARLINK-11436 [DTC]    
1 62887U 25024J   26164.16717884  .00189985  00000+0  14445-2 0  9994
2 62887  42.9989 325.8670 0001267 314.3132  45.7632 15.70939059 78480
STARLINK-11438 [DTC]    
1 62888U 25024K   26164.72440884  .00255755  00000+0  19280-2 0  9991
2 62888  42.9993 322.2958 0002261 260.1866  99.8747 15.70937218 78575
STARLINK-11391 [DTC]    
1 62889U 25024L   26164.73411360  .00173712  00000+0  13257-2 0  9990
2 62889  42.9995 322.3655 0002312 265.4993  94.5611 15.70901322 78578
STARLINK-11431 [DTC]    
1 62890U 25024M   26164.71300853  .00206491  00000+0  15680-2 0  9997
2 62890  42.9996 323.0985 0001450 260.2243  99.8461 15.70916705 78569
STARLINK-11435 [DTC]    
1 62891U 25024N   26163.88110634  .00184761  00000+0  14088-2 0  9997
2 62891  43.0001 328.0402 0002362 265.7133  94.3465 15.70887139 78437
STARLINK-32878          
1 62892U 25024P   26164.67175841  .00019123  00000+0  70173-3 0  9994
2 62892  43.0039 143.4393 0004378 272.8311  87.2040 15.27616646 76942
STARLINK-32892          
1 62893U 25024Q   26164.21792157  .00017525  00000+0  64445-3 0  9999
2 62893  43.0036 146.0496 0003383 275.4642  84.5824 15.27596897 76871
STARLINK-32909          
1 62894U 25024R   26164.22434458  .00017317  00000+0  63717-3 0  9998
2 62894  42.9999 146.0987 0002067 270.9317  89.1298 15.27586634 76874
STARLINK-32901          
1 62895U 25024S   26164.65376214  .00021149  00000+0  77530-3 0  9997
2 62895  43.0033 143.3007 0004824 264.4700  95.5601 15.27596610 76948
STARLINK-32890          
1 62896U 25024T   26164.62422477  .00020517  00000+0  75275-3 0  9990
2 62896  42.9970 143.0767 0002112 277.2000  82.8611 15.27590464 76941
STARLINK-32893          
1 62897U 25024U   26164.63580728  .00023432  00000+0  85909-3 0  9990
2 62897  42.9998 143.1617 0001485 265.9580  94.1102 15.27550309 76941
STARLINK-32902          
1 62898U 25024V   26164.63192781  .00020701  00000+0  75919-3 0  9995
2 62898  42.9972 143.1272 0002161 276.4247  83.6359 15.27600226 76941
STARLINK-32661          
1 62899U 25024W   26164.83335647  .00037118  00000+0  13528-2 0  9995
2 62899  43.0013 142.3382 0001251 267.2796 340.2664 15.27550478  5855
